ONEWEB-0578             
1 56067U 23043X   25362.18078844  .00000093  00000+0  19415-3 0  9998
2 56067  87.9229 278.0834 0001599  83.0880 277.0436 13.21825724135649
ONEWEB-0579             
1 56068U 23043Y   25362.17088792  .00000083  00000+0  16919-3 0  9996
2 56068  87.9231 278.0730 0001845  66.9509 293.1820 13.21829294135653
ONEWEB-0581             
1 56069U 23043Z   25362.23309736 -.00000045  00000+0 -15039-3 0  9990
2 56069  87.9042 262.8228 0002035  77.8379 282.2980 13.16592444136469
ONEWEB-0609             
1 56070U 23043AA  25362.28294286  .00000034  00000+0  57196-4 0  9997
2 56070  87.9013 293.3234 0001702  72.8767 287.2550 13.15547422133966
ONEWEB-0613             
1 56071U 23043AB  25362.27818347  .00000115  00000+0  27162-3 0  9996
2 56071  87.9010 293.3366 0001782  67.6350 292.4969 13.15546846133969
ONEWEB-0630             
1 56072U 23043AC  25362.27342711  .00000203  00000+0  50481-3 0  9992
2 56072  87.9006 293.3087 0001812  66.7519 293.3802 13.15547160133951
ONEWEB-0632             
1 56073U 23043AD  25362.26868226  .00000211  00000+0  52649-3 0  9993
2 56073  87.9002 293.3274 0001951  76.0701 284.0647 13.15548946133954
ONEWEB-0633             
1 56074U 23043AE  25362.18628441  .00000105  00000+0  24612-3 0  9999
2 56074  87.9003 293.3070 0001636  63.0111 297.1187 13.15546770133925
ONEWEB-0634             
1 56075U 23043AF  25362.24807758  .00000092  00000+0  21051-3 0  9996
2 56075  87.9007 293.3455 0001423  78.3600 281.7690 13.15547527133922
ONEWEB-0635             
1 56076U 23043AG  25362.09121300  .00000080  00000+0  17820-3 0  9998
2 56076  87.9005 293.3297 0002050  77.0011 283.1348 13.15547930133939
ONEWEB-0636             
1 56077U 23043AH  25362.23540636 -.00000062  00000+0 -19830-3 0  9997
2 56077  87.9000 293.3188 0001977  78.2049 281.9303 13.15548296133938
ONEWEB-0637             
1 56078U 23043AJ  25362.30512103 -.00000062  00000+0 -19843-3 0  9998
2 56078  87.9003 293.3217 0001803  84.6302 275.5034 13.15549646133969
ONEWEB-0647             
1 56079U 23043AK  25362.30037107 -.00000064  00000+0 -20446-3 0  9998
2 56079  87.9004 293.3357 0001929  74.1935 285.9408 13.15547456133957
ONEWEB-0651             
1 56080U 23043AL  25362.29562035 -.00000106  00000+0 -31574-3 0  9992
2 56080  87.9008 293.3299 0001948  81.2983 278.8368 13.15547101135158
ONEWEB-0718             
1 56081U 23043AM  25362.29086033  .00000019  00000+0  15599-4 0  9993
2 56081  87.8999 293.3123 0001139  82.6586 277.4674 13.15550053133961
ONEWEB-0561             
1 56710U 23068A   25362.29046220  .00000129  00000+0  28455-3 0  9999
2 56710  87.9212 308.5344 0002280  77.6493 282.4895 13.20770713126946
