[{"OBJECT_NAME":"ONEWEB-0578","OBJECT_ID":"2023-043X","EPOCH":"2025-12-28T04:20:20.121216","MEAN_MOTION":13.21825724,"ECCENTRICITY":0.00015991,"INCLINATION":87.9229,"RA_OF_ASC_NODE":278.0834,"ARG_OF_PERICENTER":83.088,"MEAN_ANOMALY":277.0436,"EPHEMERIS_TYPE":0,"CLASSIFICATION_TYPE":"U","NORAD_CAT_ID":56067,"ELEMENT_SET_NO":999,"REV_AT_EPOCH":13564,"BSTAR":0.00019415109,"MEAN_MOTION_DOT":9.3e-7,"MEAN_MOTION_DDOT":0},{"OBJECT_NAME":"ONEWEB-0579","OBJECT_ID":"2023-043Y","EPOCH":"2025-12-28T04:06:04.716288","MEAN_MOTION":13.21829294,"ECCENTRICITY":0.00018453,"INCLINATION":87.9231,"RA_OF_ASC_NODE":278.073,"ARG_OF_PERICENTER":66.9509,"MEAN_ANOMALY":293.182,"EPHEMERIS_TYPE":0,"CLASSIFICATION_TYPE":"U","NORAD_CAT_ID":56068,"ELEMENT_SET_NO":999,"REV_AT_EPOCH":13565,"BSTAR":0.00016919063,"MEAN_MOTION_DOT":8.3e-7,"MEAN_MOTION_DDOT":0},{"OBJECT_NAME":"ONEWEB-0581","OBJECT_ID":"2023-043Z","EPOCH":"2025-12-28T05:35:39.611904","MEAN_MOTION":13.16592444,"ECCENTRICITY":0.00020352,"INCLINATION":87.9042,"RA_OF_ASC_NODE":262.8228,"ARG_OF_PERICENTER":77.8379,"MEAN_ANOMALY":282.298,"EPHEMERIS_TYPE":0,"CLASSIFICATION_TYPE":"U","NORAD_CAT_ID":56069,"ELEMENT_SET_NO":999,"REV_AT_EPOCH":13646,"BSTAR":-0.0001503941,"MEAN_MOTION_DOT":-4.5e-7,"MEAN_MOTION_DDOT":0},{"OBJECT_NAME":"ONEWEB-0609","OBJECT_ID":"2023-043AA","EPOCH":"2025-12-28T06:47:26.263104","MEAN_MOTION":13.15547422,"ECCENTRICITY":0.00017022,"INCLINATION":87.9013,"RA_OF_ASC_NODE":293.3234,"ARG_OF_PERICENTER":72.8767,"MEAN_ANOMALY":287.255,"EPHEMERIS_TYPE":0,"CLASSIFICATION_TYPE":"U","NORAD_CAT_ID":56070,"ELEMENT_SET_NO":999,"REV_AT_EPOCH":13396,"BSTAR":5.7196423e-5,"MEAN_MOTION_DOT":3.4e-7,"MEAN_MOTION_DDOT":0},{"OBJECT_NAME":"ONEWEB-0613","OBJECT_ID":"2023-043AB","EPOCH":"2025-12-28T06:40:35.051808","MEAN_MOTION":13.15546846,"ECCENTRICITY":0.00017828,"INCLINATION":87.901,"RA_OF_ASC_NODE":293.3366,"ARG_OF_PERICENTER":67.635,"MEAN_ANOMALY":292.4969,"EPHEMERIS_TYPE":0,"CLASSIFICATION_TYPE":"U","NORAD_CAT_ID":56071,"ELEMENT_SET_NO":999,"REV_AT_EPOCH":13396,"BSTAR":0.00027162497,"MEAN_MOTION_DOT":1.15e-6,"MEAN_MOTION_DDOT":0},{"OBJECT_NAME":"ONEWEB-0630","OBJECT_ID":"2023-043AC","EPOCH":"2025-12-28T06:33:44.102304","MEAN_MOTION":13.1554716,"ECCENTRICITY":0.00018129,"INCLINATION":87.9006,"RA_OF_ASC_NODE":293.3087,"ARG_OF_PERICENTER":66.7519,"MEAN_ANOMALY":293.3802,"EPHEMERIS_TYPE":0,"CLASSIFICATION_TYPE":"U","NORAD_CAT_ID":56072,"ELEMENT_SET_NO":999,"REV_AT_EPOCH":13395,"BSTAR":0.00050481003,"MEAN_MOTION_DOT":2.03e-6,"MEAN_MOTION_DDOT":0},{"OBJECT_NAME":"ONEWEB-0632","OBJECT_ID":"2023-043AD","EPOCH":"2025-12-28T06:26:54.147264","MEAN_MOTION":13.15548946,"ECCENTRICITY":0.00019519,"INCLINATION":87.9002,"RA_OF_ASC_NODE":293.3274,"ARG_OF_PERICENTER":76.0701,"MEAN_ANOMALY":284.0647,"EPHEMERIS_TYPE":0,"CLASSIFICATION_TYPE":"U","NORAD_CAT_ID":56073,"ELEMENT_SET_NO":999,"REV_AT_EPOCH":13395,"BSTAR":0.00052648942,"MEAN_MOTION_DOT":2.11e-6,"MEAN_MOTION_DDOT":0},{"OBJECT_NAME":"ONEWEB-0633","OBJECT_ID":"2023-043AE","EPOCH":"2025-12-28T04:28:14.973024","MEAN_MOTION":13.1554677,"ECCENTRICITY":0.0001636,"INCLINATION":87.9003,"RA_OF_ASC_NODE":293.307,"ARG_OF_PERICENTER":63.0111,"MEAN_ANOMALY":297.1187,"EPHEMERIS_TYPE":0,"CLASSIFICATION_TYPE":"U","NORAD_CAT_ID":56074,"ELEMENT_SET_NO":999,"REV_AT_EPOCH":13392,"BSTAR":0.0002461203,"MEAN_MOTION_DOT":1.05e-6,"MEAN_MOTION_DDOT":0},{"OBJECT_NAME":"ONEWEB-0634","OBJECT_ID":"2023-043AF","EPOCH":"2025-12-28T05:57:13.902912","MEAN_MOTION":13.15547527,"ECCENTRICITY":0.00014232,"INCLINATION":87.9007,"RA_OF_ASC_NODE":293.3455,"ARG_OF_PERICENTER":78.36,"MEAN_ANOMALY":281.769,"EPHEMERIS_TYPE":0,"CLASSIFICATION_TYPE":"U","NORAD_CAT_ID":56075,"ELEMENT_SET_NO":999,"REV_AT_EPOCH":13392,"BSTAR":0.00021050669,"MEAN_MOTION_DOT":9.2e-7,"MEAN_MOTION_DDOT":0},{"OBJECT_NAME":"ONEWEB-0635","OBJECT_ID":"2023-043AG","EPOCH":"2025-12-28T02:11:20.803200","MEAN_MOTION":13.1554793,"ECCENTRICITY":0.00020509,"INCLINATION":87.9005,"RA_OF_ASC_NODE":293.3297,"ARG_OF_PERICENTER":77.0011,"MEAN_ANOMALY":283.1348,"EPHEMERIS_TYPE":0,"CLASSIFICATION_TYPE":"U","NORAD_CAT_ID":56076,"ELEMENT_SET_NO":999,"REV_AT_EPOCH":13393,"BSTAR":0.00017819982,"MEAN_MOTION_DOT":8.0e-7,"MEAN_MOTION_DDOT":0},{"OBJECT_NAME":"ONEWEB-0636","OBJECT_ID":"2023-043AH","EPOCH":"2025-12-28T05:38:59.109504","MEAN_MOTION":13.15548296,"ECCENTRICITY":0.00019773,"INCLINATION":87.9,"RA_OF_ASC_NODE":293.3188,"ARG_OF_PERICENTER":78.2049,"MEAN_ANOMALY":281.9303,"EPHEMERIS_TYPE":0,"CLASSIFICATION_TYPE":"U","NORAD_CAT_ID":56077,"ELEMENT_SET_NO":999,"REV_AT_EPOCH":13393,"BSTAR":-0.00019830128,"MEAN_MOTION_DOT":-6.2e-7,"MEAN_MOTION_DDOT":0},{"OBJECT_NAME":"ONEWEB-0637","OBJECT_ID":"2023-043AJ","EPOCH":"2025-12-28T07:19:22.456992","MEAN_MOTION":13.15549646,"ECCENTRICITY":0.00018039,"INCLINATION":87.9003,"RA_OF_ASC_NODE":293.3217,"ARG_OF_PERICENTER":84.6302,"MEAN_ANOMALY":275.5034,"EPHEMERIS_TYPE":0,"CLASSIFICATION_TYPE":"U","NORAD_CAT_ID":56078,"ELEMENT_SET_NO":999,"REV_AT_EPOCH":13396,"BSTAR":-0.0001984297,"MEAN_MOTION_DOT":-6.2e-7,"MEAN_MOTION_DDOT":0},{"OBJECT_NAME":"ONEWEB-0647","OBJECT_ID":"2023-043AK","EPOCH":"2025-12-28T07:12:32.060448","MEAN_MOTION":13.15547456,"ECCENTRICITY":0.0001929,"INCLINATION":87.9004,"RA_OF_ASC_NODE":293.3357,"ARG_OF_PERICENTER":74.1935,"MEAN_ANOMALY":285.9408,"EPHEMERIS_TYPE":0,"CLASSIFICATION_TYPE":"U","NORAD_CAT_ID":56079,"ELEMENT_SET_NO":999,"REV_AT_EPOCH":13395,"BSTAR":-0.00020445956,"MEAN_MOTION_DOT":-6.4e-7,"MEAN_MOTION_DDOT":0},{"OBJECT_NAME":"ONEWEB-0651","OBJECT_ID":"2023-043AL","EPOCH":"2025-12-28T07:05:41.598240","MEAN_MOTION":13.15547101,"ECCENTRICITY":0.0001948,"INCLINATION":87.9008,"RA_OF_ASC_NODE":293.3299,"ARG_OF_PERICENTER":81.2983,"MEAN_ANOMALY":278.8368,"EPHEMERIS_TYPE":0,"CLASSIFICATION_TYPE":"U","NORAD_CAT_ID":56080,"ELEMENT_SET_NO":999,"REV_AT_EPOCH":13515,"BSTAR":-0.00031573612,"MEAN_MOTION_DOT":-1.06e-6,"MEAN_MOTION_DDOT":0},{"OBJECT_NAME":"ONEWEB-0718","OBJECT_ID":"2023-043AM","EPOCH":"2025-12-28T06:58:50.332512","MEAN_MOTION":13.15550053,"ECCENTRICITY":0.0001139,"INCLINATION":87.8999,"RA_OF_ASC_NODE":293.3123,"ARG_OF_PERICENTER":82.6586,"MEAN_ANOMALY":277.4674,"EPHEMERIS_TYPE":0,"CLASSIFICATION_TYPE":"U","NORAD_CAT_ID":56081,"ELEMENT_SET_NO":999,"REV_AT_EPOCH":13396,"BSTAR":1.5598562e-5,"MEAN_MOTION_DOT":1.9e-7,"MEAN_MOTION_DDOT":0},{"OBJECT_NAME":"ONEWEB-0561","OBJECT_ID":"2023-068A","EPOCH":"2025-12-28T06:58:15.934080","MEAN_MOTION":13.20770713,"ECCENTRICITY":0.00022801,"INCLINATION":87.9212,"RA_OF_ASC_NODE":308.5344,"ARG_OF_PERICENTER":77.6493,"MEAN_ANOMALY":282.4895,"EPHEMERIS_TYPE":0,"CLASSIFICATION_TYPE":"U","NORAD_CAT_ID":56710,"ELEMENT_SET_NO":999,"REV_AT_EPOCH":12694,"BSTAR":0.00028455429,"MEAN_MOTION_DOT":1.29e-6,"MEAN_MOTION_DDOT":0}]
